NORAD_CAT_ID,OBJECT_NAME,OBJECT_TYPE,EPOCH,MEAN_MOTION,ECCENTRICITY,INCLINATION,RA_OF_ASC_NODE,ARG_OF_PERICENTER,MEAN_ANOMALY,BSTAR,MEAN_MOTION_DOT,MEAN_MOTION_DDOT,TLE_LINE0,TLE_LINE1,TLE_LINE2,SEMIMAJOR_AXIS,PERIOD,APOGEE,PERIGEE,DECAYED
53156.0,STARLINK-4087,PAYLOAD,2023-04-16 10:00:00,15.08843376,0.0001294,53.2146,234.7655,94.6834,24.6283,-0.00053,-8.714e-05,0.0,0 STARLINK-4087,1 53156U 22083AA  23106.41667824 -.00008714  00000-0 -53000-3 0  9998,2 53156  53.2146 234.7655 0001294  94.6834  24.6283 15.08843376  1309,6917.87,95.437,540.63,538.84,0.0
53156.0,STARLINK-4087,PAYLOAD,2023-04-16 22:00:00,15.08818213,0.0001235,53.214,232.5219,78.6092,238.0868,0.00095749,0.00014974,0.0,0 STARLINK-4087,1 53156U 22083AA  23106.91667824  .00014974  00000-0  95749-3 0  9992,2 53156  53.2140 232.5219 0001235  78.6092 238.0868 15.08818213 42293,6917.947,95.439,540.666,538.958,0.0
53156.0,STARLINK-4087,PAYLOAD,2023-04-17 14:00:01,15.08876789,0.0001176,53.2142,229.5291,86.2663,253.5739,-0.0046721,-0.00073955,0.0,0 STARLINK-4087,1 53156U 22083AA  23107.58334491 -.00073955  00000-0 -46721-2 0  9998,2 53156  53.2142 229.5291 0001176  86.2663 253.5739 15.08876789  1302,6917.768,95.435,540.446,538.819,0.0
53156.0,STARLINK-4087,PAYLOAD,2023-04-17 22:00:00,15.08828827,0.0001108,53.2141,228.0325,85.7246,265.7257,0.00059696,9.223e-05,0.0,0 STARLINK-4087,1 53156U 22083AA  23107.91667824  .00009223  00000-0  59696-3 0  9995,2 53156  53.2141 228.0325 0001108  85.7246 265.7257 15.08828827  1309,6917.915,95.438,540.546,539.013,0.0
53156.0,STARLINK-4087,PAYLOAD,2023-04-18 08:00:01,15.08856113,0.0001157,53.2145,226.1606,91.836,4.1037,0.0024805,0.00039428,0.0,0 STARLINK-4087,1 53156U 22083AA  23108.33334491  .00039428  00000-0  24805-2 0  9996,2 53156  53.2145 226.1606 0001157  91.8360   4.1037 15.08856113 42511,6917.831,95.437,540.497,538.896,0.0
53156.0,STARLINK-4087,PAYLOAD,2023-04-18 14:00:01,15.08913683,0.0001182,53.2145,225.0398,73.8282,300.8179,-0.0097573,-0.00152608,0.0,0 STARLINK-4087,1 53156U 22083AA  23108.58334491 -.00152608  00000-0 -97573-2 0  9993,2 53156  53.2145 225.0398 0001182  73.8282 300.8179 15.08913683  1309,6917.655,95.433,540.338,538.703,0.0
53156.0,STARLINK-4087,PAYLOAD,2023-04-18 22:00:00,15.08823377,0.0001199,53.2145,223.543,64.7276,321.5307,-0.000199,-3.452e-05,0.0,0 STARLINK-4087,1 53156U 22083AA  23108.91667824 -.00003452  00000-0 -19900-3 0  9990,2 53156  53.2145 223.5430 0001199  64.7276 321.5307 15.08823377  1302,6917.931,95.439,540.626,538.967,0.0
53156.0,STARLINK-4087,PAYLOAD,2023-04-19 07:25:24,15.0884578,0.000138,53.2154,221.7811,73.8062,286.3082,0.00024657,3.639e-05,0.0,0 STARLINK-4087,1 53156U 22083AA  23109.30931084  .00003639  00000-0  24657-3 0  9996,2 53156  53.2154 221.7811 0001380  73.8062 286.3082 15.08845780 42036,6917.863,95.437,540.682,538.773,0.0
53156.0,STARLINK-4087,PAYLOAD,2023-04-19 18:33:05,15.08863126,0.0001121,53.2155,219.697,78.249,281.8628,0.00053906,8.307e-05,0.0,0 STARLINK-4087,1 53156U 22083AA  23109.77298199  .00008307  00000-0  53906-3 0  9996,2 53156  53.2155 219.6970 0001121  78.2490 281.8628 15.08863126 42104,6917.81,95.436,540.45,538.899,0.0
53156.0,STARLINK-4087,PAYLOAD,2023-04-20 00:54:38,15.0884197,0.0001214,53.2153,218.5118,64.9593,295.1525,3.8722e-05,3.28e-06,0.0,0 STARLINK-4087,1 53156U 22083AA  23110.03794850  .00000328  00000-0  38722-4 0  9997,2 53156  53.2153 218.5118 0001214  64.9593 295.1525 15.08841970 42773,6917.874,95.437,540.579,538.9,0.0
53156.0,STARLINK-4087,PAYLOAD,2023-04-20 07:16:11,15.08837975,0.0001334,53.2142,217.3213,76.8565,283.2576,-1.7868e-05,-5.72e-06,0.0,0 STARLINK-4087,1 53156U 22083AA  23110.30291031 -.00000572  00000-0 -17868-4 0  9991,2 53156  53.2142 217.3213 0001334  76.8565 283.2576 15.08837975 42187,6917.887,95.438,540.674,538.829,0.0
53156.0,STARLINK-4087,PAYLOAD,2023-04-20 18:23:53,15.08849619,0.0001299,53.2151,215.2365,100.3287,259.7851,0.0004927,7.564e-05,0.0,0 STARLINK-4087,1 53156U 22083AA  23110.76658655  .00007564  00000-0  49270-3 0  9997,2 53156  53.2151 215.2365 0001299 100.3287 259.7851 15.08849619 42256,6917.851,95.437,540.615,538.817,0.0
53156.0,STARLINK-4087,PAYLOAD,2023-04-21 13:28:31,15.08846852,0.0001286,53.2151,211.6691,88.0148,272.0991,0.00062389,9.657e-05,0.0,0 STARLINK-4087,1 53156U 22083AA  23111.56147134  .00009657  00000-0  62389-3 0  9992,2 53156  53.2151 211.6691 0001286  88.0148 272.0991 15.08846852 43005,6917.859,95.437,540.614,538.835,0.0
53156.0,STARLINK-4087,PAYLOAD,2023-04-21 16:39:17,15.08853514,0.0001151,53.2159,211.0745,94.6971,265.4153,0.0010497,0.00016464,0.0,0 STARLINK-4087,1 53156U 22083AA  23111.69395062  .00016464  00000-0  10497-2 0  9997,2 53156  53.2159 211.0745 0001151  94.6971 265.4153 15.08853514 42395,6917.839,95.437,540.5,538.908,0.0
53156.0,STARLINK-4087,PAYLOAD,2023-04-22 05:22:22,15.08844417,0.0001138,53.2145,208.695,76.2845,283.8274,0.00099828,0.00015637,0.0,0 STARLINK-4087,1 53156U 22083AA  23112.22387411  .00015637  00000-0  99828-3 0  9993,2 53156  53.2145 208.6950 0001138  76.2845 283.8274 15.08844417 43101,6917.867,95.437,540.519,538.945,0.0
53156.0,STARLINK-4087,PAYLOAD,2023-04-22 14:54:41,15.08866033,0.0001003,53.2151,206.9125,90.3969,269.7138,0.0016469,0.00026038,0.0,0 STARLINK-4087,1 53156U 22083AA  23112.62130833  .00026038  00000-0  16469-2 0  9997,2 53156  53.2151 206.9125 0001003  90.3969 269.7138 15.08866033 42534,6917.801,95.436,540.36,538.972,0.0
53156.0,STARLINK-4087,PAYLOAD,2023-04-22 22:51:36,15.0885707,0.0001443,53.2137,205.4254,79.7719,280.3435,0.0010521,0.00016504,0.0,0 STARLINK-4087,1 53156U 22083AA  23112.95250915  .00016504  00000-0  10521-2 0  9997,2 53156  53.2137 205.4254 0001443  79.7719 280.3435 15.08857070 42582,6917.828,95.436,540.691,538.695,0.0
53156.0,STARLINK-4087,PAYLOAD,2023-04-23 16:20:51,15.08831728,0.0001195,53.2151,202.1562,92.0604,268.0525,0.0010473,0.00016415,0.0,0 STARLINK-4087,1 53156U 22083AA  23113.68115592  .00016415  00000-0  10473-2 0  9996,2 53156  53.2151 202.1562 0001195  92.0604 268.0525 15.08831728 43327,6917.906,95.438,540.597,538.944,0.0
53156.0,STARLINK-4087,PAYLOAD,2023-04-24 14:36:13,15.08943085,0.0001441,53.2147,197.9897,83.7136,276.402,0.0041322,0.00066282,0.0,0 STARLINK-4087,1 53156U 22083AA  23114.60849419  .00066282  00000-0  41322-2 0  9995,2 53156  53.2147 197.9897 0001441  83.7136 276.4020 15.08943085 42833,6917.565,95.431,540.427,538.433,0.0
53156.0,STARLINK-4087,PAYLOAD,2023-04-24 17:46:59,15.08921425,0.0001501,53.2148,197.3945,82.1209,277.9953,0.0023936,0.00038098,0.0,0 STARLINK-4087,1 53156U 22083AA  23114.74096980  .00038098  00000-0  23936-2 0  9992,2 53156  53.2148 197.3945 0001501  82.1209 277.9953 15.08921425 43480,6917.632,95.432,540.535,538.458,0.0
53156.0,STARLINK-4087,PAYLOAD,2023-04-25 12:51:39,15.08782005,0.0001782,53.214,193.8251,135.9578,224.1557,-9.3037e-05,-1.766e-05,0.0,0 STARLINK-4087,1 53156U 22083AA  23115.53587929 -.00001766  00000-0 -93037-4 0  9993,2 53156  53.2140 193.8251 0001782 135.9578 224.1557 15.08782005 43607,6918.058,95.441,541.155,538.69,0.0
53156.0,STARLINK-4087,PAYLOAD,2023-04-26 11:07:05,15.08832217,0.0001333,53.213,189.6667,108.9664,251.1473,0.0015802,0.00024945,0.0,0 STARLINK-4087,1 53156U 22083AA  23116.46326033  .00024945  00000-0  15802-2 0  9997,2 53156  53.2130 189.6667 0001333 108.9664 251.1473 15.08832217 43112,6917.904,95.438,540.691,538.847,0.0
53156.0,STARLINK-4087,PAYLOAD,2023-04-27 10:57:52,15.08870451,0.0001304,53.2135,185.2055,106.316,253.7976,0.0014569,0.00022994,0.0,0 STARLINK-4087,1 53156U 22083AA  23117.45685323  .00022994  00000-0  14569-2 0  9998,2 53156  53.2135 185.2055 0001304 106.3160 253.7976 15.08870451 43894,6917.787,95.436,540.554,538.75,0.0
53156.0,STARLINK-4087,PAYLOAD,2023-04-28 10:48:38,15.08866233,0.0001264,53.214,180.7478,96.5729,263.5407,0.00042887,6.549e-05,0.0,0 STARLINK-4087,1 53156U 22083AA  23118.45044062  .00006549  00000-0  42887-3 0  9991,2 53156  53.2140 180.7478 0001264  96.5729 263.5407 15.08866233 44044,6917.8,95.436,540.54,538.791,0.0
53156.0,STARLINK-4087,PAYLOAD,2023-04-29 12:14:48,15.08847039,0.0001132,53.2143,175.9887,98.4677,261.6444,-6.4129e-05,-1.308e-05,0.0,0 STARLINK-4087,1 53156U 22083AA  23119.51027796 -.00001308  00000-0 -64129-4 0  9998,2 53156  53.2143 175.9887 0001132  98.4677 261.6444 15.08847039 44205,6917.859,95.437,540.507,538.941,0.0
53156.0,STARLINK-4087,PAYLOAD,2023-04-30 08:54:48,15.08837665,0.0001079,53.2148,172.1212,84.8242,275.2873,-0.00012037,-2.203e-05,0.0,0 STARLINK-4087,1 53156U 22083AA  23120.37139869 -.00002203  00000-0 -12037-3 0  9994,2 53156  53.2148 172.1212 0001079  84.8242 275.2873 15.08837665 44333,6917.888,95.438,540.499,539.006,0.0
53156.0,STARLINK-4087,PAYLOAD,2023-05-01 11:56:22,15.08834534,0.0001329,53.2152,167.0636,112.4783,247.635,6.7535e-05,7.87e-06,0.0,0 STARLINK-4087,1 53156U 22083AA  23121.49748497  .00000787  00000-0  67535-4 0  9998,2 53156  53.2152 167.0636 0001329 112.4783 247.6350 15.08834534 44501,6917.897,95.438,540.681,538.843,0.0
53156.0,STARLINK-4087,PAYLOAD,2023-05-02 11:47:09,15.08852546,0.0001086,53.2148,162.6043,102.148,257.9634,0.00034122,5.149e-05,0.0,0 STARLINK-4087,1 53156U 22083AA  23122.49107820  .00005149  00000-0  34122-3 0  9990,2 53156  53.2148 162.6043 0001086 102.1480 257.9634 15.08852546 44657,6917.842,95.437,540.458,538.956,0.0
53156.0,STARLINK-4087,PAYLOAD,2023-05-03 11:37:56,15.08838598,9.87e-05,53.2145,158.1446,92.5187,267.5918,6.7268e-05,7.83e-06,0.0,0 STARLINK-4087,1 53156U 22083AA  23123.48468540  .00000783  00000-0  67268-4 0  9996,2 53156  53.2145 158.1446 0000987  92.5187 267.5918 15.08838598 44806,6917.885,95.438,540.432,539.067,0.0
53156.0,STARLINK-4087,PAYLOAD,2023-05-04 11:28:43,15.0884229,0.0001028,53.2146,153.684,91.0309,269.0801,6.6487e-05,7.71e-06,0.0,0 STARLINK-4087,1 53156U 22083AA  23124.47828481  .00000771  00000-0  66487-4 0  9999,2 53156  53.2146 153.6840 0001028  91.0309 269.0801 15.08842290 44321,6917.873,95.437,540.45,539.027,0.0
